{
    "links": {
        "self": "http://www.neowsapp.com/rest/v1/neo/54054538?api_key=iIulBulltgU6a56xZRHN4H3l9WmuAYTsLGpBGhQ2"
    },
    "id": "54054538",
    "neo_reference_id": "54054538",
    "name": "(2020 ST2)",
    "designation": "2020 ST2",
    "nasa_jpl_url": "http://ssd.jpl.nasa.gov/sbdb.cgi?sstr=54054538",
    "absolute_magnitude_h": 24.385,
    "estimated_diameter": {
        "kilometers": {
            "estimated_diameter_min": 0.0352821447,
            "estimated_diameter_max": 0.0788932739
        },
        "meters": {
            "estimated_diameter_min": 35.2821446865,
            "estimated_diameter_max": 78.8932739109
        },
        "miles": {
            "estimated_diameter_min": 0.0219233015,
            "estimated_diameter_max": 0.0490219925
        },
        "feet": {
            "estimated_diameter_min": 115.7550715731,
            "estimated_diameter_max": 258.8362087778
        }
    },
    "is_potentially_hazardous_asteroid": false,
    "close_approach_data": [
        {
            "close_approach_date": "2018-09-21",
            "close_approach_date_full": "2018-Sep-21 05:45",
            "epoch_date_close_approach": 1537508700000,
            "relative_velocity": {
                "kilometers_per_second": "27.5721921726",
                "kilometers_per_hour": "99259.8918214435",
                "miles_per_hour": "61676.2366709408"
            },
            "miss_distance": {
                "astronomical": "0.3429590047",
                "lunar": "133.4110528283",
                "kilometers": "51305936.600439989",
                "miles": "31880030.7068462882"
            },
            "orbiting_body": "Earth"
        },
        {
            "close_approach_date": "2020-09-04",
            "close_approach_date_full": "2020-Sep-04 21:02",
            "epoch_date_close_approach": 1599253320000,
            "relative_velocity": {
                "kilometers_per_second": "18.4305738933",
                "kilometers_per_hour": "66350.066015867",
                "miles_per_hour": "41227.3507419147"
            },
            "miss_distance": {
                "astronomical": "0.0294100832",
                "lunar": "11.4405223648",
                "kilometers": "4399685.803242784",
                "miles": "2733837.9883830592"
            },
            "orbiting_body": "Earth"
        },
        {
            "close_approach_date": "2067-05-11",
            "close_approach_date_full": "2067-May-11 15:46",
            "epoch_date_close_approach": 3072354360000,
            "relative_velocity": {
                "kilometers_per_second": "14.3839649275",
                "kilometers_per_hour": "51782.2737388859",
                "miles_per_hour": "32175.4911462538"
            },
            "miss_distance": {
                "astronomical": "0.3454548707",
                "lunar": "134.3819447023",
                "kilometers": "51679312.837845409",
                "miles": "32112035.9425442842"
            },
            "orbiting_body": "Earth"
        }
    ],
    "orbital_data": {
        "orbit_id": "1",
        "orbit_determination_date": "2020-09-20 23:12:05",
        "first_observation_date": "2020-09-09",
        "last_observation_date": "2020-09-21",
        "data_arc_in_days": 12,
        "observations_used": 20,
        "orbit_uncertainty": "8",
        "minimum_orbit_intersection": ".01757",
        "jupiter_tisserand_invariant": "4.218",
        "epoch_osculation": "2459107.5",
        "eccentricity": ".5644800072034971",
        "semi_major_axis": "1.561297870353157",
        "inclination": "11.83175899305217",
        "ascending_node_longitude": "165.6976148277516",
        "orbital_period": "712.5692513913527",
        "perihelion_distance": ".6799764372494024",
        "perihelion_argument": "90.35841640733491",
        "aphelion_distance": "2.442619303456912",
        "perihelion_time": "2459045.396045286285",
        "mean_anomaly": "31.37579070845761",
        "mean_motion": ".5052140536475144",
        "equinox": "J2000",
        "orbit_class": {
            "orbit_class_type": "APO",
            "orbit_class_description": "Near-Earth asteroid orbits which cross the Earth’s orbit similar to that of 1862 Apollo",
            "orbit_class_range": "a (semi-major axis) > 1.0 AU; q (perihelion) < 1.017 AU"
        }
    },
    "is_sentry_object": false
}